satname,norad_id,inclination_deg,eccentricity,mean_motion_rev_per_day,perigee_km,apogee_km,l1,l2
STARLINK-1263,45405,53.1586,0.0001342,15.3020274,474.2871695356125,476.1266070352276,1 45405U 20019AX  26073.51944554  .00005719  00000+0  20506-3 0  9992,2 45405  53.1586 106.8378 0001342  90.2324 269.8830 15.30202740330715
STARLINK-1265,45406,53.1592,0.0001207,15.30191599,474.41295078338044,476.067356028213,1 45406U 20019AY  26073.79544843 -.00000751  00000+0 -13244-4 0  9995,2 45406  53.1592 105.6305 0001207  95.8759 264.2379 15.30191599330753
STARLINK-1278,45408,53.0446,0.0002758,15.57043432,394.35075455396054,398.08748939084126,1 45408U 20019BA  26073.78972789  .00116879  00000+0  15710-2 0  9995,2 45408  53.0446 105.6833 0002758  53.7766 306.3499 15.57043432330753
STARLINK-1296,45412,53.1584,0.0001357,15.30337822,473.8736446162329,475.7335326919929,1 45412U 20019BE  26073.78907129  .00048067  00000+0  16177-2 0  9997,2 45412  53.1584 105.5634 0001357  84.3374 275.7782 15.30337822330753
STARLINK-1298,45413,53.0336,0.0004021,16.01051692,268.8312929397671,274.17893512787396,1 45413U 20019BF  26073.92561431  .00472777  10920-3  85213-3 0  9999,2 45413  53.0336  26.8499 0004021  51.3269 308.8120 16.01051692331954
STARLINK-1309,45414,53.0673,0.0006366,15.55820425,395.45398838242636,404.08361805108234,1 45414U 20019BG  26073.76857123  .00105935  00000+0  14918-2 0  9994,2 45414  53.0673  99.0517 0006366  48.1061 312.0492 15.55820425330820
STARLINK-1316,45415,53.1603,0.0001264,15.30260078,474.1694521808422,475.90193423768596,1 45415U 20019BH  26073.50778274  .00007359  00000+0  25986-3 0  9995,2 45415  53.1603 106.9160 0001264 112.0237 248.0899 15.30260078330739
STARLINK-1286,45417,53.0486,0.0003417,15.51261265,410.72194650759957,415.3630385728002,1 45417U 20019BK  26073.50323952  .00046951  00000+0  79053-3 0  9991,2 45417  53.0486 107.5860 0003417  69.4852 290.6523 15.51261265330978
STARLINK-1308,45419,53.054,0.0003249,15.51573868,409.9241364784266,414.3364521662779,1 45419U 20019BM  26073.77261476  .00088002  00000+0  14511-2 0  9994,2 45419  53.0540 127.6785 0003249  33.7019 326.4196 15.51573868330465
STARLINK-1329,45531,53.0494,4.71e-05,15.57181084,395.50083547686063,396.13894221578903,1 45531U 20025A   26073.19974244  .00133002  00000+0  17742-2 0  9996,2 45531  53.0494  59.4904 0000471  59.7102 300.3956 15.57181084326155
STARLINK-1338,45532,53.0492,0.0005181,15.55759858,396.4329908723739,403.4564391454669,1 45532U 20025B   26073.39330471  .00104679  00000+0  14781-2 0  9995,2 45532  53.0492  61.9798 0005181  27.0828 333.0452 15.55759858326139
STARLINK-1350,45535,53.0743,0.0002389,15.36283863,455.47678440803065,458.74266529316446,1 45535U 20025E   26073.80030843  .00017331  00000+0  49250-3 0  9992,2 45535  53.0743   9.1406 0002389  81.0723 279.0550 15.36283863326946
STARLINK-1362,45538,53.1614,0.0001235,15.29777798,475.6294337081199,477.3225231137867,1 45538U 20025H   26073.42380647 -.00173300  00000+0 -60545-2 0  9993,2 45538  53.1614  79.0074 0001235 102.2246 257.8893 15.29777798325905
STARLINK-1368,45540,53.1593,0.0001494,15.30193599,474.2102880636112,476.25807537270794,1 45540U 20025K   26073.30285601  .00000074  00000+0  14629-4 0  9996,2 45540  53.1593  79.9003 0001494  89.5225 270.5947 15.30193599325877
STARLINK-1371,45542,53.0507,0.0001862,15.4789343,421.62319578082406,424.15589806689786,1 45542U 20025M   26073.39796300  .00091680  00000+0  17200-2 0  9999,2 45542  53.0507  66.9176 0001862  30.3691 329.7424 15.47893430326068
STARLINK-1372,45543,53.1597,0.0001723,15.30198962,474.0373356064074,476.39900179754204,1 45543U 20025N   26073.73682976  .00001350  00000+0  57703-4 0  9990,2 45543  53.1597  77.5769 0001723  95.9081 264.2116 15.30198962325049
STARLINK-1373,45544,53.0502,0.0005084,15.51655536,408.4399808807739,415.34408240014454,1 45544U 20025P   26073.27145581  .00105129  00000+0  17228-2 0  9991,2 45544  53.0502  66.9447 0005084  28.9838 331.1453 15.51655536326058
STARLINK-1327,45555,53.0468,0.0006591,15.55172035,397.1840316382686,406.1211502770702,1 45555U 20025AA  26073.92461261  .00109695  00000+0  15809-2 0  9996,2 45555  53.0468  41.3385 0006591  81.9262 278.2496 15.55172035326468
STARLINK-1356,45564,53.0519,0.0006294,15.4573413,424.93727857482645,433.5063818703102,1 45564U 20025AK  26073.90525460  .00084041  00000+0  17001-2 0  9999,2 45564  53.0519  49.0088 0006294  52.7109 307.4470 15.45734130326350
STARLINK-1357,45565,53.0522,0.0004135,15.56773684,394.20012489719375,399.8031645563833,1 45565U 20025AL  26073.85272067  .00111439  00000+0  15141-2 0  9991,2 45565  53.0522  13.0126 0004135 120.4705 239.6715 15.56773684326869
STARLINK-1361,45567,53.0502,0.0007704,15.48653212,415.4271416189695,425.90273564601375,1 45567U 20025AN  26073.91855998  .00096927  00000+0  17676-2 0  9999,2 45567  53.0502  48.8882 0007704  52.9748 307.1963 15.48653212326361
STARLINK-1363,45568,53.0421,0.0007793,15.77840291,331.3281660949024,341.79369428890004,1 45568U 20025AP  26073.13276438  .00135868  00000+0  78004-3 0  9991,2 45568  53.0421  15.5088 0007793  74.7212 285.4669 15.77840291326758
STARLINK-1366,45569,53.0426,0.000802,15.77172892,333.0683579845672,343.8417716565391,1 45569U 20025AQ  26074.00002315  .00045740  00000+0  27597-3 0  9990,2 45569  53.0426  11.9836 0008020  79.3694  66.1099 15.77172892  6036
STARLINK-1376,45570,53.1626,0.0002553,15.30236566,473.3562591981354,476.8555250188465,1 45570U 20025AR  26073.22637588  .00006827  00000+0  24216-3 0  9999,2 45570  53.1626  56.7405 0002553  43.3900 316.7301 15.30236566326196
STARLINK-1320,45572,53.0489,0.0006788,15.69586604,355.50598404991615,364.6537872939043,1 45572U 20025AT  26073.96568443  .00087960  00000+0  72607-3 0  9999,2 45572  53.0489 319.6768 0006788  73.2734 286.9027 15.69586604327634
STARLINK-1321,45573,53.0484,0.0004551,15.49395634,415.3997698326257,421.5860623822664,1 45573U 20025AU  26073.91668981  .00115463  00000+0  20466-2 0  9998,2 45573  53.0484  33.4482 0004551  78.8983 260.2823 15.49395634  5896
STARLINK-1331,45578,53.0524,0.0005204,15.49267505,415.3304839748853,422.4048064096014,1 45578U 20025AZ  26073.92824006  .00092967  00000+0  16614-2 0  9999,2 45578  53.0524  40.0751 0005204 104.5028 255.6557 15.49267505326491
STARLINK-1333,45580,53.162,0.00013,15.30188717,474.3578184819353,476.1396987791786,1 45580U 20025BB  26073.26540650 -.00000651  00000+0 -98441-5 0  9991,2 45580  53.1620  56.5560 0001300  85.8453 274.2696 15.30188717326205
STARLINK-1335,45581,53.1581,0.0001389,15.29373869,476.73058459622825,478.6351313527748,1 45581U 20025BC  26073.21220608 -.00003296  00000+0 -10186-3 0  9991,2 45581  53.1581  54.0709 0001389  78.2956 281.8200 15.29373869326220
STARLINK-1337,45582,53.0534,0.000521,15.58782453,387.6529307473056,394.7065587953575,1 45582U 20025BD  26073.94342384  .00064573  00000+0  82105-3 0  9991,2 45582  53.0534  36.2276 0005210  96.4640 263.6965 15.58782453326533
STARLINK-1347,45586,53.0452,0.0005393,15.55296183,397.6356526269856,404.94794452913175,1 45586U 20025BH  26073.82480632  .00105298  00000+0  15121-2 0  9994,2 45586  53.0452   4.6689 0005393  80.5154 279.6465 15.55296183326965
STARLINK-1364,45589,53.0501,0.0007859,15.50606206,409.6163052076781,420.2936872073169,1 45589U 20025BL  26073.91668981  .00117830  00000+0  19989-2 0  9993,2 45589  53.0501  38.1226 0007859  82.4432 310.0638 15.50606206  5952
STARLINK-1365,45590,53.0523,0.0004338,15.46184307,424.94798274086315,430.8529008253545,1 45590U 20025BM  26073.71181770  .00099238  00000+0  19720-2 0  9993,2 45590  53.0523  69.5999 0004338  56.3032 303.8387 15.46184307326065
STARLINK-1443,45660,53.1396,0.0003303,15.25570561,486.80444347527373,491.3409221917527,1 45660U 20035D   26073.62920885  .00050521  00000+0  19642-2 0  9995,2 45660  53.1396  42.1214 0003303  75.7951 284.3414 15.25570561319519
STARLINK-1446,45663,53.0256,5.15e-05,15.43144524,436.4845121718181,437.1864543375941,1 45663U 20035G   26073.92802633  .00024596  00000+0  55427-3 0  9996,2 45663  53.0256 334.4894 0000515 314.6603  45.4359 15.43144524320486
STARLINK-1448,45665,53.0507,0.0007978,15.53525919,401.02825243749794,411.8537250763584,1 45665U 20035J   26073.92831225  .00105027  00000+0  16079-2 0  9995,2 45665  53.0507  27.4875 0007978  97.7863 262.4052 15.53525919319731
STARLINK-1451,45668,53.0527,0.0002195,15.10379373,533.5246954793565,536.5595811210715,1 45668U 20035M   26073.90883659  .00026688  00000+0  16188-2 0  9990,2 45668  53.0527  42.4935 0002195  48.6957 311.4222 15.10379373319531
STARLINK-1452,45669,53.0325,0.0007138,15.45840705,424.0500770980143,433.7678158912295,1 45669U 20035N   26073.07804191  .00090970  00000+0  18308-2 0  9994,2 45669  53.0325   0.8116 0007138  76.1067 284.0733 15.45840705320047
STARLINK-1453,45670,53.0487,0.0006159,15.53762497,401.5740877940834,409.9304826155985,1 45670U 20035P   26073.91859218  .00110782  00000+0  16808-2 0  9996,2 45670  53.0487 348.1165 0006159  73.7271 286.4416 15.53762497320181
STARLINK-1454,45671,53.0503,0.0008381,15.52162125,404.72506297647305,416.1040330812775,1 45671U 20035Q   26073.58216126  .00126647  00000+0  20294-2 0  9996,2 45671  53.0503  29.3277 0008381  79.5307 280.6646 15.52162125319670
STARLINK-1456,45673,53.0503,0.0002065,15.50701542,413.2738544574004,416.0792864619998,1 45673U 20035S   26073.84037041  .00094121  00000+0  15993-2 0  9995,2 45673  53.0503  21.5986 0002065 127.4829 232.6367 15.50701542319822
STARLINK-1457,45674,53.0474,0.0008348,15.80175503,324.3439922540374,335.5438041216521,1 45674U 20035T   26073.91668981  .00147110  00000+0  75853-3 0  9996,2 45674  53.0474 356.2277 0008348  92.5531 249.8052 15.80175503  6035
STARLINK-1458,45675,53.0524,0.0007021,15.43746288,430.28080090055937,439.8478982356237,1 45675U 20035U   26073.92281031  .00041357  00000+0  90453-3 0  9994,2 45675  53.0524  30.6331 0007021  96.7529 263.4276 15.43746288319665
